{
    "week": 294,
    "satellites": [
        {
            "Name": "BEIDOU-3 M24 (C46)",
            "Line1": "1 44542U 19061A   24328.99627787  .00000018  00000+0  00000+0 0  9997",
            "Line2": "2 44542  54.4247 201.9635 0009045  13.2530 346.8528  1.86229476 35172",
            "SatelliteNumber": "44542",
            "Classification": "U",
            "LaunchYear": "19",
            "LaunchNumber": "061",
            "PieceOfLaunch": "A",
            "EpochYear": "24",
            "EpochDay": 328.99627787,
            "FirstDerivativeMeanMotion": 1.8e-07,
            "SecondDerivativeMeanMotion": "00000+0",
            "BSTAR": "00000+0",
            "SetNumber": "999",
            "Inclination": 54.4247,
            "RAAN": 201.9635,
            "Eccentricity": 0.0009045,
            "ArgumentOfPerigee": 13.253,
            "MeanAnomaly": 346.8528,
            "MeanMotion": 1.86229476,
            "RevolutionNumber": "3517"
        },
        {
            "Name": "BEIDOU-3 M23 (C45)",
            "Line1": "1 44543U 19061B   24329.45462605  .00000025  00000+0  00000+0 0  9994",
            "Line2": "2 44543  54.4229 201.9166 0005730   9.2319 210.7692  1.86229735 35189",
            "SatelliteNumber": "44543",
            "Classification": "U",
            "LaunchYear": "19",
            "LaunchNumber": "061",
            "PieceOfLaunch": "B",
            "EpochYear": "24",
            "EpochDay": 329.45462605,
            "FirstDerivativeMeanMotion": 2.5e-07,
            "SecondDerivativeMeanMotion": "00000+0",
            "BSTAR": "00000+0",
            "SetNumber": "999",
            "Inclination": 54.4229,
            "RAAN": 201.9166,
            "Eccentricity": 0.000573,
            "ArgumentOfPerigee": 9.2319,
            "MeanAnomaly": 210.7692,
            "MeanMotion": 1.86229735,
            "RevolutionNumber": "3518"
        },
        {
            "Name": "BEIDOU-3 IGSO-3 (C40)",
            "Line1": "1 44709U 19073A   24329.29545439 -.00000203  00000+0  00000+0 0  9999",
            "Line2": "2 44709  55.7813 287.0266 0040254 190.6600 169.2012  1.00253357 18728",
            "SatelliteNumber": "44709",
            "Classification": "U",
            "LaunchYear": "19",
            "LaunchNumber": "073",
            "PieceOfLaunch": "A",
            "EpochYear": "24",
            "EpochDay": 329.29545439,
            "FirstDerivativeMeanMotion": -2.03e-06,
            "SecondDerivativeMeanMotion": "00000+0",
            "BSTAR": "00000+0",
            "SetNumber": "999",
            "Inclination": 55.7813,
            "RAAN": 287.0266,
            "Eccentricity": 0.0040254,
            "ArgumentOfPerigee": 190.66,
            "MeanAnomaly": 169.2012,
            "MeanMotion": 1.00253357,
            "RevolutionNumber": "1872"
        },
        {
            "Name": "BEIDOU-3 M22 (C44)",
            "Line1": "1 44793U 19078A   24329.37752819 -.00000077  00000+0  00000+0 0  9997",
            "Line2": "2 44793  54.4390 319.7914 0005418  11.0177 349.0023  1.86232129 34038",
            "SatelliteNumber": "44793",
            "Classification": "U",
            "LaunchYear": "19",
            "LaunchNumber": "078",
            "PieceOfLaunch": "A",
            "EpochYear": "24",
            "EpochDay": 329.37752819,
            "FirstDerivativeMeanMotion": -7.7e-07,
            "SecondDerivativeMeanMotion": "00000+0",
            "BSTAR": "00000+0",
            "SetNumber": "999",
            "Inclination": 54.439,
            "RAAN": 319.7914,
            "Eccentricity": 0.0005418,
            "ArgumentOfPerigee": 11.0177,
            "MeanAnomaly": 349.0023,
            "MeanMotion": 1.86232129,
            "RevolutionNumber": "3403"
        },
        {
            "Name": "BEIDOU-3 M21 (C43)",
            "Line1": "1 44794U 19078B   24329.50690245 -.00000077  00000+0  00000+0 0  9997",
            "Line2": "2 44794  54.4124 319.7595 0003643 354.8261   5.1782  1.86232643 34043",
            "SatelliteNumber": "44794",
            "Classification": "U",
            "LaunchYear": "19",
            "LaunchNumber": "078",
            "PieceOfLaunch": "B",
            "EpochYear": "24",
            "EpochDay": 329.50690245,
            "FirstDerivativeMeanMotion": -7.7e-07,
            "SecondDerivativeMeanMotion": "00000+0",
            "BSTAR": "00000+0",
            "SetNumber": "999",
            "Inclination": 54.4124,
            "RAAN": 319.7595,
            "Eccentricity": 0.0003643,
            "ArgumentOfPerigee": 354.8261,
            "MeanAnomaly": 5.1782,
            "MeanMotion": 1.86232643,
            "RevolutionNumber": "3404"
        },
        {
            "Name": "BEIDOU-3 M19 (C41)",
            "Line1": "1 44864U 19090A   24329.21530779 -.00000024  00000+0  00000+0 0  9994",
            "Line2": "2 44864  56.0613  81.7106 0016707 278.7949  77.7816  1.86231650 33610",
            "SatelliteNumber": "44864",
            "Classification": "U",
            "LaunchYear": "19",
            "LaunchNumber": "090",
            "PieceOfLaunch": "A",
            "EpochYear": "24",
            "EpochDay": 329.21530779,
            "FirstDerivativeMeanMotion": -2.4e-07,
            "SecondDerivativeMeanMotion": "00000+0",
            "BSTAR": "00000+0",
            "SetNumber": "999",
            "Inclination": 56.0613,
            "RAAN": 81.7106,
            "Eccentricity": 0.0016707,
            "ArgumentOfPerigee": 278.7949,
            "MeanAnomaly": 77.7816,
            "MeanMotion": 1.8623165,
            "RevolutionNumber": "3361"
        },
        {
            "Name": "BEIDOU-3 M20 (C42)",
            "Line1": "1 44865U 19090B   24329.63461841 -.00000026  00000+0  00000+0 0  9996",
            "Line2": "2 44865  56.0633  81.7303 0014075 292.1827  75.2152  1.86231617 33612",
            "SatelliteNumber": "44865",
            "Classification": "U",
            "LaunchYear": "19",
            "LaunchNumber": "090",
            "PieceOfLaunch": "B",
            "EpochYear": "24",
            "EpochDay": 329.63461841,
            "FirstDerivativeMeanMotion": -2.6e-07,
            "SecondDerivativeMeanMotion": "00000+0",
            "BSTAR": "00000+0",
            "SetNumber": "999",
            "Inclination": 56.0633,
            "RAAN": 81.7303,
            "Eccentricity": 0.0014075,
            "ArgumentOfPerigee": 292.1827,
            "MeanAnomaly": 75.2152,
            "MeanMotion": 1.86231617,
            "RevolutionNumber": "3361"
        },
        {
            "Name": "BEIDOU-3 G2 (C60)",
            "Line1": "1 45344U 20017A   24329.59424539 -.00000129  00000+0  00000+0 0  9992",
            "Line2": "2 45344   2.5382  35.1834 0004462 218.6253 104.1899  1.00271430 17546",
            "SatelliteNumber": "45344",
            "Classification": "U",
            "LaunchYear": "20",
            "LaunchNumber": "017",
            "PieceOfLaunch": "A",
            "EpochYear": "24",
            "EpochDay": 329.59424539,
            "FirstDerivativeMeanMotion": -1.29e-06,
            "SecondDerivativeMeanMotion": "00000+0",
            "BSTAR": "00000+0",
            "SetNumber": "999",
            "Inclination": 2.5382,
            "RAAN": 35.1834,
            "Eccentricity": 0.0004462,
            "ArgumentOfPerigee": 218.6253,
            "MeanAnomaly": 104.1899,
            "MeanMotion": 1.0027143,
            "RevolutionNumber": "1754"
        },
        {
            "Name": "BEIDOU-3 G3 (C61)",
            "Line1": "1 45807U 20040A   24329.59397312 -.00000342  00000+0  00000+0 0  9997",
            "Line2": "2 45807   1.0936  56.3964 0003377 300.1064  31.9392  1.00274708 16353",
            "SatelliteNumber": "45807",
            "Classification": "U",
            "LaunchYear": "20",
            "LaunchNumber": "040",
            "PieceOfLaunch": "A",
            "EpochYear": "24",
            "EpochDay": 329.59397312,
            "FirstDerivativeMeanMotion": -3.42e-06,
            "SecondDerivativeMeanMotion": "00000+0",
            "BSTAR": "00000+0",
            "SetNumber": "999",
            "Inclination": 1.0936,
            "RAAN": 56.3964,
            "Eccentricity": 0.0003377,
            "ArgumentOfPerigee": 300.1064,
            "MeanAnomaly": 31.9392,
            "MeanMotion": 1.00274708,
            "RevolutionNumber": "1635"
        },
        {
            "Name": "BEIDOU-3 G4 (C62)",
            "Line1": "1 56564U 23066A   24329.75863125 -.00000099  00000+0  00000+0 0  9997",
            "Line2": "2 56564   1.7251 289.0343 0004474 258.8037 309.5384  1.00271855  5696",
            "SatelliteNumber": "56564",
            "Classification": "U",
            "LaunchYear": "23",
            "LaunchNumber": "066",
            "PieceOfLaunch": "A",
            "EpochYear": "24",
            "EpochDay": 329.75863125,
            "FirstDerivativeMeanMotion": -9.9e-07,
            "SecondDerivativeMeanMotion": "00000+0",
            "BSTAR": "00000+0",
            "SetNumber": "999",
            "Inclination": 1.7251,
            "RAAN": 289.0343,
            "Eccentricity": 0.0004474,
            "ArgumentOfPerigee": 258.8037,
            "MeanAnomaly": 309.5384,
            "MeanMotion": 1.00271855,
            "RevolutionNumber": "569"
        }
    ]
}